$$SOE
2459580.500000000, A.D. 2022-Jan-01 00:00:00.0000, 1.734094942363645E+08, 3.583999026320221E+08, 9.207213794478133E+06,
2459587.500000000, A.D. 2022-Jan-08 00:00:00.0000, 1.631596849086668E+08, 3.633823205687706E+08, 9.264699640529335E+06,
2459594.500000000, A.D. 2022-Jan-15 00:00:00.0000, 1.527846318962334E+08, 3.680858407483718E+08, 9.315075235263154E+06,
2459601.500000000, A.D. 2022-Jan-22 00:00:00.0000, 1.422924816663316E+08, 3.725072895515016E+08, 9.358312614367545E+06,
2459608.500000000, A.D. 2022-Jan-29 00:00:00.0000, 1.316914621042109E+08, 3.766437641158859E+08, 9.394390538535833E+06,
2459615.500000000, A.D. 2022-Feb-05 00:00:00.0000, 1.209898698133561E+08, 3.804926335360742E+08, 9.423294625945777E+06,
2459622.500000000, A.D. 2022-Feb-12 00:00:00.0000, 1.101960595724632E+08, 3.840515385009021E+08, 9.445017188603520E+06,
2459629.500000000, A.D. 2022-Feb-19 00:00:00.0000, 9.931843465504456E+07, 3.873183917406667E+08, 9.459557087342948E+06,
2459636.500000000, A.D. 2022-Feb-26 00:00:00.0000, 8.836543672706035E+07, 3.902913785633081E+08, 9.466919666601360E+06,
2459643.500000000, A.D. 2022-Mar-05 00:00:00.0000, 7.734553550744809E+07, 3.929689568688462E+08, 9.467116704061657E+06,
2459650.500000000, A.D. 2022-Mar-12 00:00:00.0000, 6.626721843893541E+07, 3.953498565851819E+08, 9.460166349540800E+06,
2459657.500000000, A.D. 2022-Mar-19 00:00:00.0000, 5.513898046522884E+07, 3.974330785638770E+08, 9.446093048992515E+06,
2459664.500000000, A.D. 2022-Mar-26 00:00:00.0000, 4.396931396111371E+07, 3.992178929420213E+08, 9.424927451214135E+06,
2459671.500000000, A.D. 2022-Apr-02 00:00:00.0000, 3.276669890626075E+07, 4.007038369277558E+08, 9.396706286668926E+06,
2459678.500000000, A.D. 2022-Apr-09 00:00:00.0000, 2.153959359638007E+07, 4.018907120291513E+08, 9.361472194145799E+06,
2459685.500000000, A.D. 2022-Apr-16 00:00:00.0000, 1.029642626904276E+07, 4.027785813976253E+08, 9.319273516293079E+06,
2459692.500000000, A.D. 2022-Apr-23 00:00:00.0000, -9.544136042714481E+05, 4.033677683892528E+08, 9.270164269226342E+06,
2459699.500000000, A.D. 2022-Apr-30 00:00:00.0000, -1.220458620985226E+07, 4.036588541138327E+08, 9.214204274472922E+06,
2459706.500000000, A.D. 2022-May-07 00:00:00.0000, -2.344581139074532E+07, 4.036526720129281E+08, 9.151459011885017E+06,
2459713.500000000, A.D. 2022-May-14 00:00:00.0000, -3.466987635081173E+07, 4.033503025289471E+08, 9.081999315014571E+06,
2459720.500000000, A.D. 2022-May-21 00:00:00.0000, -4.586864307920037E+07, 4.027530686461774E+08, 9.005901157501280E+06,
2459727.500000000, A.D. 2022-May-28 00:00:00.0000, -5.703405596124244E+07, 4.018625313638908E+08, 8.923245496538192E+06,
2459734.500000000, A.D. 2022-Jun-04 00:00:00.0000, -6.815814928854156E+07, 4.006804848087476E+08, 8.834118123057187E+06,
2459741.500000000, A.D. 2022-Jun-11 00:00:00.0000, -7.923305451485159E+07, 3.992089510098100E+08, 8.738609506151766E+06,
2459748.500000000, A.D. 2022-Jun-18 00:00:00.0000, -9.025100721162422E+07, 3.974501743708568E+08, 8.636814629876494E+06,
2459755.500000000, A.D. 2022-Jun-25 00:00:00.0000, -1.012043536877671E+08, 3.954066158282196E+08, 8.528832817625523E+06,
2459762.500000000, A.D. 2022-Jul-02 00:00:00.0000, -1.120855571350369E+08, 3.930809466495739E+08, 8.414767527060747E+06,
2459769.500000000, A.D. 2022-Jul-09 00:00:00.0000, -1.228872029059883E+08, 3.904760420716335E+08, 8.294726094927579E+06,
2459776.500000000, A.D. 2022-Jul-16 00:00:00.0000, -1.336020029789179E+08, 3.875949758812563E+08, 8.168819525967985E+06,
2459783.500000000, A.D. 2022-Jul-23 00:00:00.0000, -1.442228018078147E+08, 3.844410160407951E+08, 8.037162534412771E+06,
2459790.500000000, A.D. 2022-Jul-30 00:00:00.0000, -1.547425834711536E+08, 3.810176180227180E+08, 7.899873556834787E+06,
2459797.500000000, A.D. 2022-Aug-06 00:00:00.0000, -1.651544765235016E+08, 3.773284165172042E+08, 7.757074460220724E+06,
2459804.500000000, A.D. 2022-Aug-13 00:00:00.0000, -1.754517573790010E+08, 3.733772182892689E+08, 7.608890246464372E+06,
2459811.500000000, A.D. 2022-Aug-20 00:00:00.0000, -1.856278537980820E+08, 3.691679957034561E+08, 7.455448856392637E+06,
2459818.500000000, A.D. 2022-Aug-27 00:00:00.0000, -1.956763484108331E+08, 3.647048802057760E+08, 7.296881008167222E+06,
2459825.500000000, A.D. 2022-Sep-03 00:00:00.0000, -2.055909820324716E+08, 3.599921556659271E+08, 7.133320038832381E+06,
2459832.500000000, A.D. 2022-Sep-10 00:00:00.0000, -2.153656566866460E+08, 3.550342516159021E+08, 6.964901743295789E+06,
2459839.500000000, A.D. 2022-Sep-17 00:00:00.0000, -2.249944383160111E+08, 3.498357363956556E+08, 6.791764208498880E+06,
2459846.500000000, A.D. 2022-Sep-24 00:00:00.0000, -2.344715591306122E+08, 3.444013101692050E+08, 6.614047633545265E+06,
2459853.500000000, A.D. 2022-Oct-01 00:00:00.0000, -2.437914193651195E+08, 3.387357978046667E+08, 6.431894112177759E+06,
2459860.500000000, A.D. 2022-Oct-08 00:00:00.0000, -2.529485880476407E+08, 3.328441421557599E+08, 6.245447382910252E+06,
2459867.500000000, A.D. 2022-Oct-15 00:00:00.0000, -2.619378037219343E+08, 3.267313989582801E+08, 6.054852730094805E+06,
2459874.500000000, A.D. 2022-Oct-22 00:00:00.0000, -2.707539773140792E+08, 3.204027316716657E+08, 5.860257098060071E+06,
2459881.500000000, A.D. 2022-Oct-29 00:00:00.0000, -2.793921946518474E+08, 3.138634036818658E+08, 5.661808977154076E+06,
2459888.500000000, A.D. 2022-Nov-05 00:00:00.0000, -2.878477165462001E+08, 3.071187706113070E+08, 5.459658093330517E+06,
2459895.500000000, A.D. 2022-Nov-12 00:00:00.0000, -2.961159784131542E+08, 3.001742740114712E+08, 5.253955184880495E+06,
2459902.500000000, A.D. 2022-Nov-19 00:00:00.0000, -3.041925901666570E+08, 2.930354354934925E+08, 5.044851854078010E+06,
2459909.500000000, A.D. 2022-Nov-26 00:00:00.0000, -3.120733361301289E+08, 2.857078509062318E+08, 4.832500437193826E+06,
2459916.500000000, A.D. 2022-Dec-03 00:00:00.0000, -3.197541748111346E+08, 2.781971845557447E+08, 4.617053876751021E+06,
2459923.500000000, A.D. 2022-Dec-10 00:00:00.0000, -3.272312385045515E+08, 2.705091634898517E+08, 4.398665593417734E+06,
2459930.500000000, A.D. 2022-Dec-17 00:00:00.0000, -3.345008327104291E+08, 2.626495718273595E+08, 4.177489353280455E+06,
2459937.500000000, A.D. 2022-Dec-24 00:00:00.0000, -3.415594352679154E+08, 2.546242450700293E+08, 3.953679115152195E+06,
2459944.500000000, A.D. 2022-Dec-31 00:00:00.0000, -3.484036948581311E+08, 2.464390645079701E+08, 3.727388833987951E+06,
2459951.500000000, A.D. 2023-Jan-07 00:00:00.0000, -3.550304287638441E+08, 2.380999526831221E+08, 3.498772287887856E+06,
2459958.500000000, A.D. 2023-Jan-14 00:00:00.0000, -3.614366218646919E+08, 2.296128704098190E+08, 3.267983149695337E+06,
2459965.500000000, A.D. 2023-Jan-21 00:00:00.0000, -3.676194275244084E+08, 2.209838121834709E+08, 3.035175102936313E+06,
2459972.500000000, A.D. 2023-Jan-28 00:00:00.0000, -3.735761667094120E+08, 2.122187997840272E+08, 2.800501649871498E+06,
2459979.500000000, A.D. 2023-Feb-04 00:00:00.0000, -3.793043255546427E+08, 2.033238771001311E+08, 2.564115878513724E+06,
2459986.500000000, A.D. 2023-Feb-11 00:00:00.0000, -3.848015531828918E+08, 1.943051059800531E+08, 2.326170337356985E+06,
2459993.500000000, A.D. 2023-Feb-18 00:00:00.0000, -3.900656598503861E+08, 1.851685622876117E+08, 2.086816956229746E+06,
2460000.500000000, A.D. 2023-Feb-25 00:00:00.0000, -3.950946151629574E+08, 1.759203320011591E+08, 1.846206976019166E+06,
2460007.500000000, A.D. 2023-Mar-04 00:00:00.0000, -3.998865462673340E+08, 1.665665073727215E+08, 1.604490879551344E+06,
2460014.500000000, A.D. 2023-Mar-11 00:00:00.0000, -4.044397359960941E+08, 1.571131831453080E+08, 1.361818321175963E+06,
2460021.500000000, A.D. 2023-Mar-18 00:00:00.0000, -4.087526209269123E+08, 1.475664527761661E+08, 1.118338046836652E+06,
2460028.500000000, A.D. 2023-Mar-25 00:00:00.0000, -4.128237891608378E+08, 1.379324046161283E+08, 8.741977822805122E+05,
2460035.500000000, A.D. 2023-Apr-01 00:00:00.0000, -4.166519774030558E+08, 1.282171184359760E+08, 6.295440827773213E+05,
2460042.500000000, A.D. 2023-Apr-08 00:00:00.0000, -4.202360679693558E+08, 1.184266635222215E+08, 3.845223010025471E+05,
2460049.500000000, A.D. 2023-Apr-15 00:00:00.0000, -4.235750880641581E+08, 1.085670972338087E+08, 1.392767969533131E+05,
2460056.500000000, A.D. 2023-Apr-22 00:00:00.0000, -4.266682095295761E+08, 9.864446096721762E+07, -1.060490256480128E+05,
2460063.500000000, A.D. 2023-Apr-29 00:00:00.0000, -4.295147463345383E+08, 8.866477578230174E+07, -3.513129231351167E+05,
2460070.500000000, A.D. 2023-May-06 00:00:00.0000, -4.321141515664109E+08, 7.863403946659778E+07, -5.963739487948567E+05,
2460077.500000000, A.D. 2023-May-13 00:00:00.0000, -4.344660149060553E+08, 6.855822414077780E+07, -8.410925065734535E+05,
2460084.500000000, A.D. 2023-May-20 00:00:00.0000, -4.365700603556826E+08, 5.844327391094093E+07, -1.085330383448515E+06,
2460091.500000000, A.D. 2023-May-27 00:00:00.0000, -4.384261440283783E+08, 4.829510253379121E+07, -1.328950780773377E+06,
2460098.500000000, A.D. 2023-Jun-03 00:00:00.0000, -4.400342519451951E+08, 3.811959111489394E+07, -1.571818348027948E+06,
2460105.500000000, A.D. 2023-Jun-10 00:00:00.0000, -4.413944978214540E+08, 2.792258582083629E+07, -1.813799222758852E+06,
2460112.500000000, A.D. 2023-Jun-17 00:00:00.0000, -4.425071207593515E+08, 1.770989554122584E+07, -2.054761090352627E+06,
2460119.500000000, A.D. 2023-Jun-24 00:00:00.0000, -4.433724825320594E+08, 7.487289553369928E+06, -2.294573288947420E+06,
2460126.500000000, A.D. 2023-Jul-01 00:00:00.0000, -4.439910642095264E+08, -2.739503984848604E+06, -2.533106915378042E+06,
2460133.500000000, A.D. 2023-Jul-08 00:00:00.0000, -4.443634638021367E+08, -1.296479789528080E+07, -2.770234711702078E+06,
2460140.500000000, A.D. 2023-Jul-15 00:00:00.0000, -4.444903962021105E+08, -2.318294702700835E+07, -3.005830846785313E+06,
2460147.500000000, A.D. 2023-Jul-22 00:00:00.0000, -4.443726919048494E+08, -3.338835152851668E+07, -3.239771000697510E+06,
$$EOE